ONEWEB-0562             
1 55799U 23029D   26168.75321998 -.00000022  00000+0 -86191-4 0  9992
2 55799  87.9184 274.3369 0002263  78.3859 281.7528 13.20771048161229
ONEWEB-0563             
1 55800U 23029E   26168.74817571 -.00000022  00000+0 -87236-4 0  9992
2 55800  87.9184 274.3683 0001748 103.4098 256.7230 13.20772191161214
ONEWEB-0564             
1 55801U 23029F   26168.74144454  .00000013  00000+0  57415-6 0  9992
2 55801  87.9187 274.3431 0002139  90.2167 269.9212 13.20771423161228
ONEWEB-0638             
1 55802U 23029G   26168.77367293  .00000643  00000+0  17008-2 0  9993
2 55802  87.8956 289.6349 0001690  79.4105 280.7215 13.14500906159478
ONEWEB-0639             
1 55803U 23029H   26168.79008691 -.00000011  00000+0 -59594-4 0  9999
2 55803  87.9170 304.8556 0001335 128.9953 231.1298 13.19725425158981
ONEWEB-0640             
1 55804U 23029J   26168.78317480  .00000261  00000+0  66903-3 0  9994
2 55804  87.8956 289.6237 0001341  84.7827 275.3456 13.14503347159490
ONEWEB-0641             
1 55805U 23029K   26168.78534112  .00000077  00000+0  15995-3 0  9998
2 55805  87.9180 304.8459 0001787 103.8578 256.2754 13.19725150158993
ONEWEB-0642             
1 55806U 23029L   26168.78060979  .00000056  00000+0  10662-3 0  9997
2 55806  87.9170 304.8584 0001607 126.1147 234.0135 13.19725002158985
ONEWEB-0643             
1 55807U 23029M   26168.75304770 -.00000179  00000+0 -51623-3 0  9995
2 55807  87.8955 289.6169 0001940 121.7426 238.3893 13.14503549159463
ONEWEB-0644             
1 55808U 23029N   26168.77586579  .00000000  00000+0 -33215-4 0  9997
2 55808  87.9168 304.8607 0001733 109.2864 250.8457 13.19724750158980
ONEWEB-0645             
1 55809U 23029P   26168.79797773  .00000018  00000+0  13720-4 0  9997
2 55809  87.9169 304.8535 0001419 101.7077 258.4215 13.19724233158988
ONEWEB-0646             
1 55810U 23029Q   26168.81536162  .00000040  00000+0  66956-4 0  9999
2 55810  87.9169 304.8502 0001775 108.3962 251.7364 13.19725318158970
ONEWEB-0648             
1 55811U 23029R   26168.79743594  .00000141  00000+0  34690-3 0  9997
2 55811  87.8968 289.5817 0001128 122.0017 238.1223 13.14501474159470
ONEWEB-0649             
1 55812U 23029S   26168.76480742 -.00000031  00000+0 -11020-3 0  9990
2 55812  87.9169 304.8578 0001609 102.5455 257.5858 13.19725086159003
ONEWEB-0650             
1 55813U 23029T   26168.76005838 -.00000061  00000+0 -18551-3 0  9999
2 55813  87.9169 304.8611 0001578 114.6509 245.4789 13.19724729158978
ONEWEB-0652             
1 55814U 23029U   26168.77839823  .00000118  00000+0  28255-3 0  9993
2 55814  87.8962 289.5928 0002041  98.6499 261.4861 13.14504207159448
ONEWEB-0653             
1 55815U 23029V   26168.76255044 -.00000048  00000+0 -16402-3 0  9995
2 55815  87.8964 289.5938 0001903  98.0893 262.0452 13.14503370159476
ONEWEB-0654             
1 55816U 23029W   26168.75779205 -.00000097  00000+0 -29713-3 0  9998
2 55816  87.8965 289.5913 0002119  91.8327 268.3045 13.14504130159498
ONEWEB-0656             
1 55817U 23029X   26168.81045977 -.00000035  00000+0 -11736-3 0  9996
2 55817  87.9199 274.3054 0002282  91.9227 268.2168 13.20773118161239
ONEWEB-0657             
1 55818U 23029Y   26168.75533907  .00000026  00000+0  32336-4 0  9993
2 55818  87.9170 304.8607 0002530 100.9930 259.1487 13.19725327158988
ONEWEB-0658             
1 55819U 23029Z   26168.75059926 -.00000016  00000+0 -71148-4 0  9993
2 55819  87.9180 304.8375 0001707 110.9293 249.2022 13.19724629158990
ONEWEB-0660             
1 55820U 23029AA  26168.81171164 -.00000097  00000+0 -29605-3 0  9990
2 55820  87.8975 289.5732 0001570  98.7768 261.3539 13.14503409159486
ONEWEB-0661             
1 55821U 23029AB  26168.77049263  .00000097  00000+0  22790-3 0  9996
2 55821  87.8956 289.6264 0001635  94.7766 265.3550 13.14502912159466
ONEWEB-0662             
1 55822U 23029AC  26168.80537648  .00000059  00000+0  12468-3 0  9999
2 55822  87.8955 289.6254 0001582  99.1949 260.9360 13.14502494159519
ONEWEB-0663             
1 55823U 23029AD  26168.76836295  .00000034  00000+0  52253-4 0  9995
2 55823  87.9200 274.3853 0001573 107.6374 252.4932 13.20869402161221
ONEWEB-0664             
1 55824U 23029AE  26168.79699551  .00000205  00000+0  47302-3 0  9999
2 55824  87.9185 274.3608 0001972  87.4880 272.6479 13.20769637161221
ONEWEB-0665             
1 55825U 23029AF  26168.76732034 -.00000053  00000+0 -17831-3 0  9998
2 55825  87.8955 289.6078 0001564 102.6107 257.5198 13.14503066159485
ONEWEB-0666             
1 55826U 23029AG  26168.79026088  .00000098  00000+0  20873-3 0  9994
2 55826  87.9182 274.3520 0002683 104.1782 255.9649 13.20771436161235
ONEWEB-0667             
1 55827U 23029AH  26168.78521552  .00000049  00000+0  89260-4 0  9992
2 55827  87.9200 274.3112 0001811  98.4422 261.6917 13.20771795161221
ONEWEB-0669             
1 55828U 23029AJ  26168.78016049  .00000040  00000+0  66267-4 0  9996
2 55828  87.9192 274.3234 0002230  86.7182 273.4206 13.20772003161221
