OBJECT_NAME,OBJECT_ID,EPOCH,MEAN_MOTION,ECCENTRICITY,INCLINATION,RA_OF_ASC_NODE,ARG_OF_PERICENTER,MEAN_ANOMALY,EPHEMERIS_TYPE,CLASSIFICATION_TYPE,NORAD_CAT_ID,ELEMENT_SET_NO,REV_AT_EPOCH,BSTAR,MEAN_MOTION_DOT,MEAN_MOTION_DDOT
ONEWEB-0562,2023-029D,2026-06-17T18:04:38.206272,13.20771048,.0002263,87.9184,274.3369,78.3859,281.7528,0,U,55799,999,16122,-.86191E-4,-.22E-6,0
ONEWEB-0563,2023-029E,2026-06-17T17:57:22.381344,13.20772191,.0001748,87.9184,274.3683,103.4098,256.7230,0,U,55800,999,16121,-.87236E-4,-.22E-6,0
ONEWEB-0564,2023-029F,2026-06-17T17:47:40.808256,13.20771423,.0002139,87.9187,274.3431,90.2167,269.9212,0,U,55801,999,16122,.57415E-6,.13E-6,0
ONEWEB-0638,2023-029G,2026-06-17T18:34:05.341152,13.14500906,.000169,87.8956,289.6349,79.4105,280.7215,0,U,55802,999,15947,.17008E-2,.643E-5,0
ONEWEB-0639,2023-029H,2026-06-17T18:57:43.509024,13.19725425,.0001335,87.9170,304.8556,128.9953,231.1298,0,U,55803,999,15898,-.59594E-4,-.11E-6,0
ONEWEB-0640,2023-029J,2026-06-17T18:47:46.302720,13.14503347,.0001341,87.8956,289.6237,84.7827,275.3456,0,U,55804,999,15949,.66903E-3,.261E-5,0
ONEWEB-0641,2023-029K,2026-06-17T18:50:53.472768,13.19725150,.0001787,87.9180,304.8459,103.8578,256.2754,0,U,55805,999,15899,.15995E-3,.77E-6,0
ONEWEB-0642,2023-029L,2026-06-17T18:44:04.685856,13.19725002,.0001607,87.9170,304.8584,126.1147,234.0135,0,U,55806,999,15898,.10662E-3,.56E-6,0
ONEWEB-0643,2023-029M,2026-06-17T18:04:23.321280,13.14503549,.000194,87.8955,289.6169,121.7426,238.3893,0,U,55807,999,15946,-.51623E-3,-.179E-5,0
ONEWEB-0644,2023-029N,2026-06-17T18:37:14.804256,13.19724750,.0001733,87.9168,304.8607,109.2864,250.8457,0,U,55808,999,15898,-.33215E-4,0,0
ONEWEB-0645,2023-029P,2026-06-17T19:09:05.275872,13.19724233,.0001419,87.9169,304.8535,101.7077,258.4215,0,U,55809,999,15898,.1372E-4,.18E-6,0
ONEWEB-0646,2023-029Q,2026-06-17T19:34:07.243968,13.19725318,.0001775,87.9169,304.8502,108.3962,251.7364,0,U,55810,999,15897,.66956E-4,.4E-6,0
ONEWEB-0648,2023-029R,2026-06-17T19:08:18.465216,13.14501474,.0001128,87.8968,289.5817,122.0017,238.1223,0,U,55811,999,15947,.3469E-3,.141E-5,0
ONEWEB-0649,2023-029S,2026-06-17T18:21:19.361088,13.19725086,.0001609,87.9169,304.8578,102.5455,257.5858,0,U,55812,999,15900,-.1102E-3,-.31E-6,0
ONEWEB-0650,2023-029T,2026-06-17T18:14:29.044032,13.19724729,.0001578,87.9169,304.8611,114.6509,245.4789,0,U,55813,999,15897,-.18551E-3,-.61E-6,0
ONEWEB-0652,2023-029U,2026-06-17T18:40:53.607072,13.14504207,.0002041,87.8962,289.5928,98.6499,261.4861,0,U,55814,999,15944,.28255E-3,.118E-5,0
ONEWEB-0653,2023-029V,2026-06-17T18:18:04.358016,13.14503370,.0001903,87.8964,289.5938,98.0893,262.0452,0,U,55815,999,15947,-.16402E-3,-.48E-6,0
ONEWEB-0654,2023-029W,2026-06-17T18:11:13.233120,13.14504130,.0002119,87.8965,289.5913,91.8327,268.3045,0,U,55816,999,15949,-.29713E-3,-.97E-6,0
ONEWEB-0656,2023-029X,2026-06-17T19:27:03.724128,13.20773118,.0002282,87.9199,274.3054,91.9227,268.2168,0,U,55817,999,16123,-.11736E-3,-.35E-6,0
ONEWEB-0657,2023-029Y,2026-06-17T18:07:41.295648,13.19725327,.000253,87.9170,304.8607,100.9930,259.1487,0,U,55818,999,15898,.32336E-4,.26E-6,0
ONEWEB-0658,2023-029Z,2026-06-17T18:00:51.776064,13.19724629,.0001707,87.9180,304.8375,110.9293,249.2022,0,U,55819,999,15899,-.71148E-4,-.16E-6,0
ONEWEB-0660,2023-029AA,2026-06-17T19:28:51.885696,13.14503409,.000157,87.8975,289.5732,98.7768,261.3539,0,U,55820,999,15948,-.29605E-3,-.97E-6,0
ONEWEB-0661,2023-029AB,2026-06-17T18:29:30.563232,13.14502912,.0001635,87.8956,289.6264,94.7766,265.3550,0,U,55821,999,15946,.2279E-3,.97E-6,0
ONEWEB-0662,2023-029AC,2026-06-17T19:19:44.527872,13.14502494,.0001582,87.8955,289.6254,99.1949,260.9360,0,U,55822,999,15951,.12468E-3,.59E-6,0
ONEWEB-0663,2023-029AD,2026-06-17T18:26:26.558880,13.20869402,.0001573,87.9200,274.3853,107.6374,252.4932,0,U,55823,999,16122,.52253E-4,.34E-6,0
ONEWEB-0664,2023-029AE,2026-06-17T19:07:40.412064,13.20769637,.0001972,87.9185,274.3608,87.4880,272.6479,0,U,55824,999,16122,.47302E-3,.205E-5,0
ONEWEB-0665,2023-029AF,2026-06-17T18:24:56.477376,13.14503066,.0001564,87.8955,289.6078,102.6107,257.5198,0,U,55825,999,15948,-.17831E-3,-.53E-6,0
ONEWEB-0666,2023-029AG,2026-06-17T18:57:58.540032,13.20771436,.0002683,87.9182,274.3520,104.1782,255.9649,0,U,55826,999,16123,.20873E-3,.98E-6,0
ONEWEB-0667,2023-029AH,2026-06-17T18:50:42.620928,13.20771795,.0001811,87.9200,274.3112,98.4422,261.6917,0,U,55827,999,16122,.8926E-4,.49E-6,0
ONEWEB-0669,2023-029AJ,2026-06-17T18:43:25.866336,13.20772003,.000223,87.9192,274.3234,86.7182,273.4206,0,U,55828,999,16122,.66267E-4,.4E-6,0
